[{"OBJECT_NAME":"STARLINK-2410","OBJECT_ID":"2021-018AQ","EPOCH":"2026-03-09T17:06:27.061344","MEAN_MOTION":15.30207751,"ECCENTRICITY":0.00013278,"INCLINATION":53.1592,"RA_OF_ASC_NODE":242.7377,"ARG_OF_PERICENTER":100.9479,"MEAN_ANOMALY":259.1672,"EPHEMERIS_TYPE":0,"CLASSIFICATION_TYPE":"U","NORAD_CAT_ID":47825,"ELEMENT_SET_NO":999,"REV_AT_EPOCH":27673,"BSTAR":7.5672564e-5,"MEAN_MOTION_DOT":1.883e-5,"MEAN_MOTION_DDOT":0},{"OBJECT_NAME":"MESON-1","OBJECT_ID":"2024-043AK","EPOCH":"2026-03-09T21:36:16.481664","MEAN_MOTION":15.29893494,"ECCENTRICITY":0.00095452,"INCLINATION":97.5469,"RA_OF_ASC_NODE":205.2839,"ARG_OF_PERICENTER":227.1432,"MEAN_ANOMALY":132.9007,"EPHEMERIS_TYPE":0,"CLASSIFICATION_TYPE":"U","NORAD_CAT_ID":59131,"ELEMENT_SET_NO":999,"REV_AT_EPOCH":11189,"BSTAR":0.0002974823,"MEAN_MOTION_DOT":8.544e-5,"MEAN_MOTION_DDOT":0}]
